{
  "norad_id": 55484,
  "name": "STARLINK-5696",
  "history": [
    {
      "epoch": "2026-03-28T17:26:00.216096Z",
      "apogee_km": 486.8203315627543,
      "perigee_km": 484.3750574404903,
      "latitude_deg": 4.246203158787248e-05,
      "longitude_deg": 144.83314499581834,
      "height_km": 485.4249242565948,
      "semi_major_axis_km": 6863.734694501622,
      "eccentricity": 0.00017813,
      "inclination_deg": 43.0028,
      "raan_deg": 232.4767,
      "arg_perigee_deg": 267.6638,
      "mean_anomaly_deg": 92.401,
      "mean_motion_rev_day": 15.26729262
    },
    {
      "epoch": "2026-03-29T02:51:15.612480Z",
      "apogee_km": 487.2321768513657,
      "perigee_km": 483.7925276149881,
      "latitude_deg": -2.5072398984180682e-05,
      "longitude_deg": 0.9231169236236134,
      "height_km": 485.0040514193962,
      "semi_major_axis_km": 6863.649352233177,
      "eccentricity": 0.00025057,
      "inclination_deg": 42.9897,
      "raan_deg": 230.2678,
      "arg_perigee_deg": 80.6387,
      "mean_anomaly_deg": 279.4747,
      "mean_motion_rev_day": 15.26757737
    },
    {
      "epoch": "2026-03-31T17:37:45.539040Z",
      "apogee_km": 484.0662861621486,
      "perigee_km": 482.0861400288486,
      "latitude_deg": -3.975837042958825e-05,
      "longitude_deg": 121.94763310525119,
      "height_km": 482.7916400459441,
      "semi_major_axis_km": 6861.213213095498,
      "eccentricity": 0.0001443,
      "inclination_deg": 43.0022,
      "raan_deg": 215.4951,
      "arg_perigee_deg": 273.5652,
      "mean_anomaly_deg": 86.5034,
      "mean_motion_rev_day": 15.27570944
    }
  ]
}